[{"OBJECT_NAME":"ICEYE-X30","OBJECT_ID":"2023-084R","EPOCH":"2026-03-09T21:18:40.033440","MEAN_MOTION":15.72701856,"ECCENTRICITY":0.00049319,"INCLINATION":97.5707,"RA_OF_ASC_NODE":220.1726,"ARG_OF_PERICENTER":282.9335,"MEAN_ANOMALY":77.1377,"EPHEMERIS_TYPE":0,"CLASSIFICATION_TYPE":"U","NORAD_CAT_ID":56947,"ELEMENT_SET_NO":999,"REV_AT_EPOCH":15325,"BSTAR":0.00083938221,"MEAN_MOTION_DOT":0.00114026,"MEAN_MOTION_DDOT":0},{"OBJECT_NAME":"STARLINK-11407 [DTC]","OBJECT_ID":"2024-209A","EPOCH":"2026-03-09T06:15:55.761984","MEAN_MOTION":15.69762357,"ECCENTRICITY":0.00014258,"INCLINATION":53.1568,"RA_OF_ASC_NODE":13.151,"ARG_OF_PERICENTER":72.2326,"MEAN_ANOMALY":287.8848,"EPHEMERIS_TYPE":0,"CLASSIFICATION_TYPE":"U","NORAD_CAT_ID":61939,"ELEMENT_SET_NO":999,"REV_AT_EPOCH":7667,"BSTAR":0.0019394396,"MEAN_MOTION_DOT":0.00241873,"MEAN_MOTION_DDOT":0}]
